ASTROCAST 0.1           
1 43798U 18099AS  26192.78726164  .00023019  00000+0  39345-3 0  9990
2 43798  97.4385 272.0791 0005875 144.9859 215.1780 15.51278683418241
ASTROCAST-0402          
1 55109U 23001DE  26193.24286416  .00005345  00000+0  19270-3 0  9998
2 55109  97.5582 286.8225 0006205 142.1809 217.9868 15.28968263148362
ASTROCAST-0401          
1 55110U 23001DF  26193.25748541  .00008765  00000+0  31848-3 0  9997
2 55110  97.5573 286.6456 0009502 116.5582 243.6632 15.28488037195031
ASTROCAST-0403          
1 55111U 23001DG  26193.21611300  .00013776  00000+0  44430-3 0  9995
2 55111  97.5623 287.9041 0004500 223.3127 136.7761 15.32269248148395
ASTROCAST-0404          
1 55112U 23001DH  26192.81798695  .00004819  00000+0  17499-3 0  9997
2 55112  97.5671 287.3209 0004907 258.9595 101.1093 15.28791377148294
