{"fetched_at":"2026-07-12T17:32:32.688Z","source":"https://celestrak.org/NORAD/elements/gp.php?NAME=ASTROCAST&FORMAT=JSON","constellation":"astrocast","records":[{"OBJECT_NAME":"ASTROCAST 0.1","OBJECT_ID":"2018-099AS","EPOCH":"2026-07-11T18:53:39.405696","CLASSIFICATION_TYPE":"U","MEAN_MOTION":15.51278683,"ECCENTRICITY":0.00058759,"INCLINATION":97.4385,"RA_OF_ASC_NODE":272.0791,"ARG_OF_PERICENTER":144.9859,"MEAN_ANOMALY":215.178,"EPHEMERIS_TYPE":0,"NORAD_CAT_ID":43798,"ELEMENT_SET_NO":999,"REV_AT_EPOCH":41824,"BSTAR":0.00039344646,"MEAN_MOTION_DOT":0.00023019,"MEAN_MOTION_DDOT":0},{"OBJECT_NAME":"ASTROCAST-0402","OBJECT_ID":"2023-001DE","EPOCH":"2026-07-12T05:49:43.463424","CLASSIFICATION_TYPE":"U","MEAN_MOTION":15.28968263,"ECCENTRICITY":0.0006205,"INCLINATION":97.5582,"RA_OF_ASC_NODE":286.8225,"ARG_OF_PERICENTER":142.1809,"MEAN_ANOMALY":217.9868,"EPHEMERIS_TYPE":0,"NORAD_CAT_ID":55109,"ELEMENT_SET_NO":999,"REV_AT_EPOCH":14836,"BSTAR":0.0001927,"MEAN_MOTION_DOT":0.00005345,"MEAN_MOTION_DDOT":0},{"OBJECT_NAME":"ASTROCAST-0401","OBJECT_ID":"2023-001DF","EPOCH":"2026-07-12T06:10:46.739424","CLASSIFICATION_TYPE":"U","MEAN_MOTION":15.28488037,"ECCENTRICITY":0.0009502,"INCLINATION":97.5573,"RA_OF_ASC_NODE":286.6456,"ARG_OF_PERICENTER":116.5582,"MEAN_ANOMALY":243.6632,"EPHEMERIS_TYPE":0,"NORAD_CAT_ID":55110,"ELEMENT_SET_NO":999,"REV_AT_EPOCH":19503,"BSTAR":0.00031848,"MEAN_MOTION_DOT":0.00008765,"MEAN_MOTION_DDOT":0},{"OBJECT_NAME":"ASTROCAST-0403","OBJECT_ID":"2023-001DG","EPOCH":"2026-07-12T05:11:12.163200","CLASSIFICATION_TYPE":"U","MEAN_MOTION":15.32269248,"ECCENTRICITY":0.00045002,"INCLINATION":97.5623,"RA_OF_ASC_NODE":287.9041,"ARG_OF_PERICENTER":223.3127,"MEAN_ANOMALY":136.7761,"EPHEMERIS_TYPE":0,"NORAD_CAT_ID":55111,"ELEMENT_SET_NO":999,"REV_AT_EPOCH":14839,"BSTAR":0.00044429805,"MEAN_MOTION_DOT":0.00013776,"MEAN_MOTION_DDOT":0},{"OBJECT_NAME":"ASTROCAST-0404","OBJECT_ID":"2023-001DH","EPOCH":"2026-07-11T19:37:54.072480","CLASSIFICATION_TYPE":"U","MEAN_MOTION":15.28791377,"ECCENTRICITY":0.00049077,"INCLINATION":97.5671,"RA_OF_ASC_NODE":287.3209,"ARG_OF_PERICENTER":258.9595,"MEAN_ANOMALY":101.1093,"EPHEMERIS_TYPE":0,"NORAD_CAT_ID":55112,"ELEMENT_SET_NO":999,"REV_AT_EPOCH":14829,"BSTAR":0.00017498992,"MEAN_MOTION_DOT":0.00004819,"MEAN_MOTION_DDOT":0}]}
